NORAD_CAT_ID,OBJECT_NAME,OBJECT_TYPE,EPOCH,MEAN_MOTION,ECCENTRICITY,INCLINATION,RA_OF_ASC_NODE,ARG_OF_PERICENTER,MEAN_ANOMALY,BSTAR,MEAN_MOTION_DOT,MEAN_MOTION_DDOT,TLE_LINE0,TLE_LINE1,TLE_LINE2,SEMIMAJOR_AXIS,PERIOD,APOGEE,PERIGEE,DECAYED
52534.0,STARLINK-3952,PAYLOAD,2023-01-15 10:45:52,15.08839447,0.0002269,53.2122,248.268,53.9649,306.1553,0.00014459,2.014e-05,0.0,0 STARLINK-3952,1 52534U 22051B   23015.44852570  .00002014  00000-0  14459-3 0  9998,2 52534  53.2122 248.2680 0002269  53.9649 306.1553 15.08839447 38015,6917.882,95.438,541.317,538.177,0.0
52534.0,STARLINK-3952,PAYLOAD,2023-01-15 21:53:34,15.08850534,0.0002085999999999,53.2138,246.1877,49.4754,310.6419,0.00027711,4.126e-05,0.0,0 STARLINK-3952,1 52534U 22051B   23015.91220129  .00004126  00000-0  27711-3 0  9990,2 52534  53.2138 246.1877 0002086  49.4754 310.6419 15.08850534 38753,6917.848000000001,95.437,541.156,538.27,0.0
52534.0,STARLINK-3952,PAYLOAD,2023-01-16 10:36:39,15.08837943,0.0002029999999999,53.2138,243.8083,51.5292,308.5882,9.8641e-05,1.282e-05,0.0,0 STARLINK-3952,1 52534U 22051B   23016.44212611  .00001282  00000-0  98641-4 0  9997,2 52534  53.2138 243.8083 0002030  51.5292 308.5882 15.08837943 38160,6917.887,95.438,541.156,538.347,0.0
52534.0,STARLINK-3952,PAYLOAD,2023-01-16 18:33:35,15.08827736,0.000182,53.214,242.3196,62.108,298.0096,-0.00013345,-2.411e-05,0.0,0 STARLINK-3952,1 52534U 22051B   23016.77333194 -.00002411  00000-0 -13345-3 0  9997,2 52534  53.2140 242.3196 0001820  62.1080 298.0096 15.08827736 38216,6917.918000000001,95.438,541.0419999999999,538.524,0.0
52534.0,STARLINK-3952,PAYLOAD,2023-01-17 07:16:41,15.08831166,0.0002046999999999,53.2145,239.9412,63.812,296.3082,3.9904e-05,3.47e-06,0.0,0 STARLINK-3952,1 52534U 22051B   23017.30325469  .00000347  00000-0  39904-4 0  9997,2 52534  53.2145 239.9412 0002047  63.8120 296.3082 15.08831166 38969,6917.906999999999,95.438,541.188,538.356,0.0
52534.0,STARLINK-3952,PAYLOAD,2023-01-17 21:35:09,15.08837411,0.0001629,53.2145,237.2643,71.1121,289.0048,7.1973e-05,8.58e-06,0.0,0 STARLINK-3952,1 52534U 22051B   23017.89941100  .00000858  00000-0  71973-4 0  9996,2 52534  53.2145 237.2643 0001629  71.1121 289.0048 15.08837411 39055,6917.888000000001,95.438,540.88,538.626,0.0
52534.0,STARLINK-3952,PAYLOAD,2023-01-17 23:10:32,15.08842312,0.0001828,53.2145,236.9674,63.5371,296.5809,3.9643e-05,3.43e-06,0.0,0 STARLINK-3952,1 52534U 22051B   23017.96564966  .00000343  00000-0  39643-4 0  9992,2 52534  53.2145 236.9674 0001828  63.5371 296.5809 15.08842312 38398,6917.8730000000005,95.437,541.003,538.474,0.0
52534.0,STARLINK-3952,PAYLOAD,2023-01-18 07:07:27,15.08842671,0.0001766,53.2144,235.4804,61.6003,298.5167,4.9899e-05,5.06e-06,0.0,0 STARLINK-3952,1 52534U 22051B   23018.29685032  .00000506  00000-0  49899-4 0  9992,2 52534  53.2144 235.4804 0001766  61.6003 298.5167 15.08842671 39116,6917.871999999999,95.437,540.9590000000001,538.516,0.0
52534.0,STARLINK-3952,PAYLOAD,2023-01-18 21:25:56,15.08843724,0.000169,53.2137,232.8045,69.357,290.7603,0.00029256,4.372e-05,0.0,0 STARLINK-3952,1 52534U 22051B   23018.89301132  .00004372  00000-0  29256-3 0  9993,2 52534  53.2137 232.8045 0001690  69.3570 290.7603 15.08843724 39205,6917.869000000001,95.437,540.903,538.565,0.0
52534.0,STARLINK-3952,PAYLOAD,2023-01-19 06:58:15,15.08841373,0.0001641999999999,53.2133,231.0209,69.6068,290.51,0.0001436,1.998e-05,0.0,0 STARLINK-3952,1 52534U 22051B   23019.29045198  .00001998  00000-0  14360-3 0  9996,2 52534  53.2133 231.0209 0001642  69.6068 290.5100 15.08841373 38595,6917.876,95.437,540.877,538.605,0.0
52534.0,STARLINK-3952,PAYLOAD,2023-01-19 16:30:34,15.08834304,0.0001675999999999,53.2132,229.2372,74.3877,285.73,-3.7353e-06,-3.47e-06,0.0,0 STARLINK-3952,1 52534U 22051B   23019.68789646 -.00000347  00000-0 -37353-5 0  9990,2 52534  53.2132 229.2372 0001676  74.3877 285.7300 15.08834304 38653,6917.898,95.438,540.922,538.6030000000001,0.0
52534.0,STARLINK-3952,PAYLOAD,2023-01-20 09:59:48,15.08840434,0.0001668,53.2133,225.9646,76.8339,283.2839,7.4414e-05,8.96e-06,0.0,0 STARLINK-3952,1 52534U 22051B   23020.41653384  .00000896  00000-0  74414-4 0  9997,2 52534  53.2133 225.9646 0001668  76.8339 283.2839 15.08840434 39430,6917.879,95.438,540.898,538.59,0.0
52534.0,STARLINK-3952,PAYLOAD,2023-01-20 22:42:53,15.08848548,0.0001664,53.2133,223.5856,78.1686,281.9493,0.00014419,2.008e-05,0.0,0 STARLINK-3952,1 52534U 22051B   23020.94644958  .00002008  00000-0  14419-3 0  9997,2 52534  53.2133 223.5856 0001664  78.1686 281.9493 15.08848548 38842,6917.854,95.437,540.87,538.568,0.0
52534.0,STARLINK-3952,PAYLOAD,2023-01-21 09:50:35,15.08839648,0.0001623,53.2132,221.5041,79.7362,280.3813,0.00016642,2.362e-05,0.0,0 STARLINK-3952,1 52534U 22051B   23021.41013419  .00002362  00000-0  16642-3 0  9995,2 52534  53.2132 221.5041 0001623  79.7362 280.3813 15.08839648 38916,6917.880999999999,95.438,540.869,538.624,0.0
52534.0,STARLINK-3952,PAYLOAD,2023-01-21 16:12:09,15.08812096,0.000179,53.2133,220.3145,79.5021,280.6172,-0.00024998,-4.261e-05,0.0,0 STARLINK-3952,1 52534U 22051B   23021.67510991 -.00004261  00000-0 -24998-3 0  9995,2 52534  53.2133 220.3145 0001790  79.5021 280.6172 15.08812096 38957,6917.965999999999,95.439,541.069,538.592,0.0
52534.0,STARLINK-3952,PAYLOAD,2023-01-22 12:52:10,15.08832659,0.000181,53.2128,216.4485,79.5243,280.5953,0.0001591,2.244e-05,0.0,0 STARLINK-3952,1 52534U 22051B   23022.53622925  .00002244  00000-0  15910-3 0  9993,2 52534  53.2128 216.4485 0001810  79.5243 280.5953 15.08832659 39081,6917.903,95.438,541.02,538.516,0.0
52534.0,STARLINK-3952,PAYLOAD,2023-01-23 19:04:29,15.08864591,0.0001810999999999,53.2135,210.7978,80.331,279.7886,0.00094161,0.0001474,0.0,0 STARLINK-3952,1 52534U 22051B   23023.79478630  .00014740  00000-0  94161-3 0  9993,2 52534  53.2135 210.7978 0001811  80.3310 279.7886 15.08864591 39275,6917.805,95.436,540.923,538.4169999999999,0.0
52534.0,STARLINK-3952,PAYLOAD,2023-01-24 12:33:43,15.08858952,0.0001792,53.2139,207.5266,81.97399999999999,278.1456,0.00029714,4.446e-05,0.0,0 STARLINK-3952,1 52534U 22051B   23024.52341909  .00004446  00000-0  29714-3 0  9997,2 52534  53.2139 207.5266 0001792  81.9740 278.1456 15.08858952 39387,6917.821999999999,95.436,540.927,538.448,0.0
52534.0,STARLINK-3952,PAYLOAD,2023-01-25 04:27:34,15.08850277,0.0001713,53.2142,204.5534,80.8832,279.2354,-2.2532e-05,-6.47e-06,0.0,0 STARLINK-3952,1 52534U 22051B   23025.18581459 -.00000647  00000-0 -22532-4 0  9999,2 52534  53.2142 204.5534 0001713  80.8832 279.2354 15.08850277 39481,6917.849,95.437,540.899,538.529,0.0
52534.0,STARLINK-3952,PAYLOAD,2023-01-25 12:24:30,15.08841105,0.0001717,53.214,203.0666,83.5362,276.5825,-0.00010687,-1.989e-05,0.0,0 STARLINK-3952,1 52534U 22051B   23025.51701865 -.00001989  00000-0 -10687-3 0  9998,2 52534  53.2140 203.0666 0001717  83.5362 276.5825 15.08841105 39530,6917.877,95.437,540.93,538.554,0.0
52534.0,STARLINK-3952,PAYLOAD,2023-01-25 17:10:40,15.08841838,0.0001668,53.2159,202.176,87.4487,272.6696,-1.5479000000000002e-05,-5.34e-06,0.0,0 STARLINK-3952,1 52534U 22051B   23025.71574217 -.00000534  00000-0 -15479-4 0  9999,2 52534  53.2159 202.1760 0001668  87.4487 272.6696 15.08841838 40236,6917.875,95.437,540.894,538.586,0.0
52534.0,STARLINK-3952,PAYLOAD,2023-01-26 10:39:54,15.08836551,0.0001958,53.2162,198.9047,94.1635,265.958,0.00012161,1.648e-05,0.0,0 STARLINK-3952,1 52534U 22051B   23026.44437847  .00001648  00000-0  12161-3 0  9996,2 52534  53.2162 198.9047 0001958  94.1635 265.9580 15.08836551 40347,6917.891,95.438,541.11,538.401,0.0
52534.0,STARLINK-3952,PAYLOAD,2023-01-26 15:26:03,15.08844954,0.0001569,53.2162,198.0125,83.3795,276.7376,1.6043e-05,-3.3e-07,0.0,0 STARLINK-3952,1 52534U 22051B   23026.64309624 -.00000033  00000-0  16043-4 0  9991,2 52534  53.2162 198.0125 0001569  83.3795 276.7376 15.08844954 39707,6917.865,95.437,540.816,538.645,0.0
52534.0,STARLINK-3952,PAYLOAD,2023-01-26 18:36:49,15.08846749,0.0001612,53.2162,197.4173,88.9917,271.126,3.3735e-05,2.49e-06,0.0,0 STARLINK-3952,1 52534U 22051B   23026.77557395  .00000249  00000-0  33735-4 0  9990,2 52534  53.2162 197.4173 0001612  88.9917 271.1260 15.08846749 40391,6917.86,95.437,540.84,538.61,0.0
52534.0,STARLINK-3952,PAYLOAD,2023-01-27 18:27:37,15.08836678,0.0001539,53.2155,192.9558,85.9322,274.1846,5.9863e-05,6.65e-06,0.0,0 STARLINK-3952,1 52534U 22051B   23027.76918006  .00000665  00000-0  59863-4 0  9992,2 52534  53.2155 192.9558 0001539  85.9322 274.1846 15.08836678 39879,6917.891,95.438,540.82,538.691,0.0
52534.0,STARLINK-3952,PAYLOAD,2023-01-28 10:21:28,15.08837448,0.0001543,53.216,189.9825,89.1772,270.9397,3.7964e-05,3.16e-06,0.0,0 STARLINK-3952,1 52534U 22051B   23028.43158070  .00000316  00000-0  37964-4 0  9995,2 52534  53.2160 189.9825 0001543  89.1772 270.9397 15.08837448 40646,6917.888,95.438,540.821,538.686,0.0
52534.0,STARLINK-3952,PAYLOAD,2023-01-28 19:53:46,15.0884412,0.000153,53.2159,188.1979,89.9966,270.1202,5.9769e-05,6.63e-06,0.0,0 STARLINK-3952,1 52534U 22051B   23028.82901560  .00000663  00000-0  59769-4 0  9990,2 52534  53.2159 188.1979 0001530  89.9966 270.1202 15.08844120 40039,6917.868,95.437,540.791,538.674,0.0
52534.0,STARLINK-3952,PAYLOAD,2023-01-29 10:12:15,15.08837233,0.0001464,53.2161,185.522,86.3854,273.7306,2.8821e-05,1.71e-06,0.0,0 STARLINK-3952,1 52534U 22051B   23029.42518130  .00000171  00000-0  28821-4 0  9993,2 52534  53.2161 185.5220 0001464  86.3854 273.7306 15.08837233 40126,6917.889,95.438,540.767,538.741,0.0
52534.0,STARLINK-3952,PAYLOAD,2023-01-29 18:09:10,15.08842429,0.0001411,53.2159,184.0342,90.5187,269.5967,7.1311e-05,8.47e-06,0.0,0 STARLINK-3952,1 52534U 22051B   23029.75637607  .00000847  00000-0  71311-4 0  9992,2 52534  53.2159 184.0342 0001411  90.5187 269.5967 15.08842429 40848,6917.873,95.437,540.714,538.762,0.0
